NORAD_CAT_ID,OBJECT_NAME,OBJECT_TYPE,EPOCH,MEAN_MOTION,ECCENTRICITY,INCLINATION,RA_OF_ASC_NODE,ARG_OF_PERICENTER,MEAN_ANOMALY,BSTAR,MEAN_MOTION_DOT,MEAN_MOTION_DDOT,TLE_LINE0,TLE_LINE1,TLE_LINE2,SEMIMAJOR_AXIS,PERIOD,APOGEE,PERIGEE,DECAYED
56785.0,STARLINK-5931,PAYLOAD,2024-07-15 15:00:13,14.98318181,0.000331,69.9997,62.6012,270.1758,89.9022,4.8914e-05,4.9e-06,0.0,0 STARLINK-5931,1 56785U 23078U   24197.62515701  .00000490  00000-0  48914-4 0  9994,2 56785  69.9997  62.6012 0003310 270.1758  89.9022 14.98318181 63188,6950.229,96.108,574.395,569.794,0.0
56785.0,STARLINK-5931,PAYLOAD,2024-07-15 18:12:29,14.98318152,0.0003358,69.9997,62.2644,269.9049,90.1725,7.48e-05,7.99e-06,0.0,0 STARLINK-5931,1 56785U 23078U   24197.75867703  .00000799  00000-0  74800-4 0  9995,2 56785  69.9997  62.2644 0003358 269.9049  90.1725 14.98318152 62772,6950.23,96.108,574.428,569.761,0.0
56785.0,STARLINK-5931,PAYLOAD,2024-07-15 21:24:45,14.98326306,0.0002955,70.0003,61.9284,264.8009,95.2812,-2.1496e-05,-3.49e-06,0.0,0 STARLINK-5931,1 56785U 23078U   24197.89219497 -.00000349  00000-0 -21496-4 0  9997,2 56785  70.0003  61.9284 0002955 264.8009  95.2812 14.98326306 63225,6950.204,96.107,574.123,570.016,0.0
56785.0,STARLINK-5931,PAYLOAD,2024-07-16 00:37:01,14.98328411,0.0002902,70.0004,61.5927,266.4624,93.6203,3.0227e-05,2.68e-06,0.0,0 STARLINK-5931,1 56785U 23078U   24198.02571259  .00000268  00000-0  30227-4 0  9990,2 56785  70.0004  61.5927 0002902 266.4624  93.6203 14.98328411 62818,6950.198,96.107,574.08,570.046,0.0
56785.0,STARLINK-5931,PAYLOAD,2024-07-16 15:02:13,14.98329108,0.0003085,70.0003,60.076,270.8386,89.2419,6.3081e-05,6.6e-06,0.0,0 STARLINK-5931,1 56785U 23078U   24198.62655056  .00000660  00000-0  63081-4 0  9994,2 56785  70.0003  60.0760 0003085 270.8386  89.2419 14.98329108 63335,6950.196,96.107,574.205,569.917,0.0
56785.0,STARLINK-5931,PAYLOAD,2024-07-16 21:26:46,14.98332677,0.0002801,70.0002,59.4023,262.0131,98.071,3.7743e-05,3.57e-06,0.0,0 STARLINK-5931,1 56785U 23078U   24198.89358883  .00000357  00000-0  37743-4 0  9990,2 56785  70.0002  59.4023 0002801 262.0131  98.0710 14.98332677 63375,6950.185,96.107,573.996,570.103,0.0
56785.0,STARLINK-5931,PAYLOAD,2024-07-17 00:39:01,14.98339336,0.0003151,70.0006,59.0668,271.573,88.5068,6.4761e-05,6.8e-06,0.0,0 STARLINK-5931,1 56785U 23078U   24199.02710344  .00000680  00000-0  64761-4 0  9999,2 56785  70.0006  59.0668 0003151 271.5730  88.5068 14.98339336 62962,6950.164,96.106,574.219,569.839,0.0
56785.0,STARLINK-5931,PAYLOAD,2024-07-17 08:39:42,14.98331161,0.0003002,70.0003,58.225,271.0904,88.9911,-4.2583e-05,-6.01e-06,0.0,0 STARLINK-5931,1 56785U 23078U   24199.36091052 -.00000601  00000-0 -42583-4 0  9997,2 56785  70.0003  58.2250 0003002 271.0904  88.9911 14.98331161 63016,6950.189,96.107,574.141,569.968,0.0
56785.0,STARLINK-5931,PAYLOAD,2024-07-17 21:28:47,14.98324759,0.0002627,70.001,56.8791,269.7757,90.3101,6.3911e-06,-1.7e-07,0.0,0 STARLINK-5931,1 56785U 23078U   24199.89499573 -.00000017  00000-0  63911-5 0  9994,2 56785  70.0010  56.8791 0002627 269.7757  90.3101 14.98324759 63529,6950.209,96.107,573.9,570.248,0.0
56785.0,STARLINK-5931,PAYLOAD,2024-07-18 00:41:03,14.98327893,0.0002893,70.0013,56.5427,275.7643,84.3186,7.9461e-06,2e-08,0.0,0 STARLINK-5931,1 56785U 23078U   24200.02851397  .00000002  00000-0  79461-5 0  9998,2 56785  70.0013  56.5427 0002893 275.7643  84.3186 14.98327893 63541,6950.199,96.107,574.075,570.054,0.0
56785.0,STARLINK-5931,PAYLOAD,2024-07-18 19:54:40,14.98329761,0.0002878,70.0003,54.5222,271.5875,88.4955,-3.0083e-05,-4.52e-06,0.0,0 STARLINK-5931,1 56785U 23078U   24200.82963379 -.00000452  00000-0 -30083-4 0  9997,2 56785  70.0003  54.5222 0002878 271.5875  88.4955 14.98329761 63236,6950.194,96.107,574.059,570.058,0.0
56785.0,STARLINK-5931,PAYLOAD,2024-07-18 21:30:48,14.98329538,0.0002833,70.0005,54.3538,271.2693,88.8142,-8.3459e-06,-1.93e-06,0.0,0 STARLINK-5931,1 56785U 23078U   24200.89639332 -.00000193  00000-0 -83459-5 0  9991,2 56785  70.0005  54.3538 0002833 271.2693  88.8142 14.98329538 63674,6950.194,96.107,574.028,570.09,0.0
56785.0,STARLINK-5931,PAYLOAD,2024-07-19 07:07:36,14.98333459,0.0002847,70.0004,53.3446,269.9458,90.1375,-6.3195e-05,-8.47e-06,0.0,0 STARLINK-5931,1 56785U 23078U   24201.29695135 -.00000847  00000-0 -63195-4 0  9999,2 56785  70.0004  53.3446 0002847 269.9458  90.1375 14.98333459 63736,6950.182,96.107,574.026,570.068,0.0
56785.0,STARLINK-5931,PAYLOAD,2024-07-19 19:56:41,14.98329209,0.000284,70.0004,51.9975,269.1148,90.9686,6.8117e-05,7.2e-06,0.0,0 STARLINK-5931,1 56785U 23078U   24201.83103051  .00000720  00000-0  68117-4 0  9997,2 56785  70.0004  51.9975 0002840 269.1148  90.9686 14.98329209 63380,6950.195,96.107,574.034,570.086,0.0
56785.0,STARLINK-5931,PAYLOAD,2024-07-19 21:32:49,14.98325375,0.0002807,70.0004,51.8292,266.5672,93.5166,0.00013353,1.5e-05,0.0,0 STARLINK-5931,1 56785U 23078U   24201.89779130  .00001500  00000-0  13353-3 0  9998,2 56785  70.0004  51.8292 0002807 266.5672  93.5166 14.98325375 63828,6950.207,96.107,574.023,570.121,0.0
56785.0,STARLINK-5931,PAYLOAD,2024-07-20 07:09:37,14.98331864,0.0002783,70.0005,50.8192,263.203,96.8812,1.9864e-05,1.44e-06,0.0,0 STARLINK-5931,1 56785U 23078U   24202.29834973  .00000144  00000-0  19864-4 0  9997,2 56785  70.0005  50.8192 0002783 263.2030  96.8812 14.98331864 63882,6950.187,96.107,573.986,570.118,0.0
56785.0,STARLINK-5931,PAYLOAD,2024-07-20 19:58:42,14.98330239,0.0002812,70.0005,49.4727,267.6411,92.4426,1.6614e-05,1.05e-06,0.0,0 STARLINK-5931,1 56785U 23078U   24202.83243112  .00000105  00000-0  16614-4 0  9993,2 56785  70.0005  49.4727 0002812 267.6411  92.4426 14.98330239 63534,6950.192,96.107,574.012,570.103,0.0
56785.0,STARLINK-5931,PAYLOAD,2024-07-20 21:34:50,14.98328573,0.0002839,70.0005,49.3044,267.0758,93.0076,-4.3269e-06,-1.45e-06,0.0,0 STARLINK-5931,1 56785U 23078U   24202.89919268 -.00000145  00000-0 -43269-5 0  9994,2 56785  70.0005  49.3044 0002839 267.0758  93.0076 14.98328573 63976,6950.197,96.107,574.035,570.089,0.0
56785.0,STARLINK-5931,PAYLOAD,2024-07-21 15:12:18,14.98329558,0.0002837,70.0008,47.453,267.3642,92.7192,3.0038e-06,-5.7e-07,0.0,0 STARLINK-5931,1 56785U 23078U   24203.63355200 -.00000057  00000-0  30038-5 0  9998,2 56785  70.0008  47.4530 0002837 267.3642  92.7192 14.98329558 64083,6950.194,96.107,574.031,570.087,0.0
56785.0,STARLINK-5931,PAYLOAD,2024-07-21 20:00:43,14.98328599,0.000287,70.0007,46.9478,267.2746,92.8085,-1.5734e-05,-2.81e-06,0.0,0 STARLINK-5931,1 56785U 23078U   24203.83383317 -.00000281  00000-0 -15734-4 0  9995,2 56785  70.0007  46.9478 0002870 267.2746  92.8085 14.98328599 63689,6950.197,96.107,574.057,570.068,0.0
56785.0,STARLINK-5931,PAYLOAD,2024-07-21 21:36:51,14.98329445,0.0002864,70.0007,46.7795,267.2522,92.831,-5.911e-06,-1.63e-06,0.0,0 STARLINK-5931,1 56785U 23078U   24203.90059239 -.00000163  00000-0 -59110-5 0  9992,2 56785  70.0007  46.7795 0002864 267.2522  92.8310 14.98329445 64126,6950.195,96.107,574.05,570.069,0.0
56785.0,STARLINK-5931,PAYLOAD,2024-07-22 13:38:11,14.98330359,0.0002948,70.0007,45.0965,267.4237,92.6584,5.2475e-05,5.33e-06,0.0,0 STARLINK-5931,1 56785U 23078U   24204.56818959  .00000533  00000-0  52475-4 0  9992,2 56785  70.0007  45.0965 0002948 267.4237  92.6584 14.98330359 64223,6950.192,96.107,574.106,570.008,0.0
56785.0,STARLINK-5931,PAYLOAD,2024-07-22 21:38:51,14.98333777,0.0002962,70.0007,44.255,267.987,92.095,6.6684e-05,7.03e-06,0.0,0 STARLINK-5931,1 56785U 23078U   24204.90198680  .00000703  00000-0  66684-4 0  9998,2 56785  70.0007  44.2550 0002962 267.9870  92.0950 14.98333777 64271,6950.181,96.107,574.105,569.988,0.0
56785.0,STARLINK-5931,PAYLOAD,2024-07-22 23:14:59,14.98334044,0.0002963,70.0007,44.0867,268.0478,92.0342,6.8461e-05,7.24e-06,0.0,0 STARLINK-5931,1 56785U 23078U   24204.96874645  .00000724  00000-0  68461-4 0  9994,2 56785  70.0007  44.0867 0002963 268.0478  92.0342 14.98334044 63853,6950.18,96.107,574.105,569.986,0.0
56785.0,STARLINK-5931,PAYLOAD,2024-07-23 07:15:40,14.98330926,0.0002978,70.0007,43.2443,277.4422,82.6399,2.8712e-05,2.5e-06,0.0,0 STARLINK-5931,1 56785U 23078U   24205.30254990  .00000250  00000-0  28712-4 0  9997,2 56785  70.0007  43.2443 0002978 277.4422  82.6399 14.98330926 64339,6950.19,96.107,574.125,569.985,0.0
56785.0,STARLINK-5931,PAYLOAD,2024-07-23 23:17:01,14.98325233,0.0002957,70.0008,41.5613,276.172,83.9102,-9.2429e-06,-2.03e-06,0.0,0 STARLINK-5931,1 56785U 23078U   24205.97015554 -.00000203  00000-0 -92429-5 0  9998,2 56785  70.0008  41.5613 0002957 276.1720  83.9102 14.98325233 64009,6950.208,96.107,574.128,570.017,0.0
56785.0,STARLINK-5931,PAYLOAD,2024-07-24 12:06:05,14.98333578,0.0002816,70.002,40.214,273.3914,86.6923,1.413e-05,7.6e-07,0.0,0 STARLINK-5931,1 56785U 23078U   24206.50422985  .00000076  00000-0  14130-4 0  9996,2 56785  70.0020  40.2140 0002816 273.3914  86.6923 14.98333578 64082,6950.182,96.107,574.004,570.09,0.0
56785.0,STARLINK-5931,PAYLOAD,2024-07-24 23:19:01,14.98335491,0.0002766,70.0012,39.0354,272.9359,87.1484,4.2996e-05,4.2e-06,0.0,0 STARLINK-5931,1 56785U 23078U   24206.97154663  .00000420  00000-0  42996-4 0  9996,2 56785  70.0012  39.0354 0002766 272.9359  87.1484 14.98335491 64587,6950.176,96.107,573.963,570.118,0.0
56785.0,STARLINK-5931,PAYLOAD,2024-07-25 21:44:55,14.98330404,0.0002634,69.9984,36.6794,280.8896,79.1966,-3.0159e-05,-4.53e-06,0.0,0 STARLINK-5931,1 56785U 23078U   24207.90619290 -.00000453  00000-0 -30159-4 0  9998,2 56785  69.9984  36.6794 0002634 280.8896  79.1966 14.98330404 64722,6950.192,96.107,573.887,570.226,0.0
56785.0,STARLINK-5931,PAYLOAD,2024-07-25 23:21:03,14.98331474,0.000249,70.0009,36.5099,284.1402,75.9481,-1.7017e-05,-2.96e-06,0.0,0 STARLINK-5931,1 56785U 23078U   24207.97295257 -.00000296  00000-0 -17017-4 0  9991,2 56785  70.0009  36.5099 0002490 284.1402  75.9481 14.98331474 64308,6950.188,96.107,573.784,570.323,0.0
